HAWK-2C                 
1 47502U 21006CT  26068.67595434  .00008129  00000+0  25493-3 0  9997
2 47502  97.2417 114.9961 0006943 184.0877 176.0310 15.33286436284247
STARLINK-35493          
1 65928U 25225U   26068.54194601  .00041033  00000+0  13906-2 0  9999
2 65928  53.1589 166.4946 0001195  80.2123 279.9013 15.30183801 24389
